{
  "type": "FeatureCollection",
  "features": [
    {
      "type": "Feature",
      "properties": {
        "norad_id": 41330,
        "name": "COSMOS 2514 (751)",
        "group": "gnss",
        "lat": 17.187107503050573,
        "lon": 130.6644871717129,
        "alt_km": 19113.00319209393,
        "timestamp": "2025-12-26T19:22:39.149739+00:00",
        "meta_object_name": "COSMOS 2514 (751)",
        "meta_object_id": "2016-008A",
        "meta_epoch": "2025-12-26T03:04:28.077600",
        "meta_mean_motion": 2.13102515,
        "meta_eccentricity": 0.00115224,
        "meta_inclination": 65.126,
        "meta_ra_of_asc_node": 318.9457,
        "meta_arg_of_pericenter": 220.0095,
        "meta_mean_anomaly": 139.91,
        "meta_ephemeris_type": 0,
        "meta_classification_type": "U",
        "meta_norad_cat_id": 41330,
        "meta_element_set_no": 999,
        "meta_rev_at_epoch": 7693,
        "meta_bstar": 0,
        "meta_mean_motion_dot": -3.4e-07,
        "meta_mean_motion_ddot": 0,
        "tle_line1": "1 41330U 16008A   25360.12810275 -.00000034  00000+0  00000+0 0  9994",
        "tle_line2": "2 41330  65.1260 318.9457 0011522 220.0095 139.9100  2.13102515 76937"
      },
      "geometry": {
        "type": "Point",
        "coordinates": [
          130.6644871717129,
          17.187107503050573
        ]
      }
    },
    {
      "type": "Feature",
      "properties": {
        "norad_id": 41384,
        "name": "IRNSS-1F",
        "group": "gnss",
        "lat": -3.2739408553451277,
        "lon": 59.071603677935414,
        "alt_km": 35852.944028008256,
        "timestamp": "2025-12-26T19:22:39.149753+00:00",
        "meta_object_name": "IRNSS-1F",
        "meta_object_id": "2016-015A",
        "meta_epoch": "2025-12-24T23:31:33.658752",
        "meta_mean_motion": 1.00278532,
        "meta_eccentricity": 0.00226614,
        "meta_inclination": 4.9118,
        "meta_ra_of_asc_node": 100.9953,
        "meta_arg_of_pericenter": 182.2729,
        "meta_mean_anomaly": 195.8977,
        "meta_ephemeris_type": 0,
        "meta_classification_type": "U",
        "meta_norad_cat_id": 41384,
        "meta_element_set_no": 999,
        "meta_rev_at_epoch": 3592,
        "meta_bstar": 0,
        "meta_mean_motion_dot": 1.78e-06,
        "meta_mean_motion_ddot": 0,
        "tle_line1": "1 41384U 16015A   25358.98025068  .00000178  00000+0  00000+0 0  9998",
        "tle_line2": "2 41384   4.9118 100.9953 0022661 182.2729 195.8977  1.00278532 35923"
      },
      "geometry": {
        "type": "Point",
        "coordinates": [
          59.071603677935414,
          -3.2739408553451277
        ]
      }
    },
    {
      "type": "Feature",
      "properties": {
        "norad_id": 41434,
        "name": "BEIDOU-2 IGSO-6 (C13)",
        "group": "gnss",
        "lat": 58.44179203259026,
        "lon": 109.97759876448752,
        "alt_km": 35999.16687071907,
        "timestamp": "2025-12-26T19:22:39.149764+00:00",
        "meta_object_name": "BEIDOU-2 IGSO-6 (C13)",
        "meta_object_id": "2016-021A",
        "meta_epoch": "2025-12-25T02:21:14.682240",
        "meta_mean_motion": 1.00290736,
        "meta_eccentricity": 0.00608236,
        "meta_inclination": 59.9818,
        "meta_ra_of_asc_node": 39.7747,
        "meta_arg_of_pericenter": 230.5129,
        "meta_mean_anomaly": 312.5474,
        "meta_ephemeris_type": 0,
        "meta_classification_type": "U",
        "meta_norad_cat_id": 41434,
        "meta_element_set_no": 999,
        "meta_rev_at_epoch": 3573,
        "meta_bstar": 0,
        "meta_mean_motion_dot": -1.35e-06,
        "meta_mean_motion_ddot": 0,
        "tle_line1": "1 41434U 16021A   25359.09808660 -.00000135  00000+0  00000+0 0  9995",
        "tle_line2": "2 41434  59.9818  39.7747 0060823 230.5129 312.5474  1.00290736 35738"
      },
      "geometry": {
        "type": "Point",
        "coordinates": [
          109.97759876448752,
          58.44179203259026
        ]
      }
    },
    {
      "type": "Feature",
      "properties": {
        "norad_id": 41469,
        "name": "IRNSS-1G",
        "group": "gnss",
        "lat": 3.873939859269484,
        "lon": 155.71800515662616,
        "alt_km": 35784.78362596572,
        "timestamp": "2025-12-26T19:22:39.149777+00:00",
        "meta_object_name": "IRNSS-1G",
        "meta_object_id": "2016-027A",
        "meta_epoch": "2025-12-26T11:22:51.769920",
        "meta_mean_motion": 1.00273179,
        "meta_eccentricity": 0.00027204,
        "meta_inclination": 4.7682,
        "meta_ra_of_asc_node": 101.747,
        "meta_arg_of_pericenter": 326.1355,
        "meta_mean_anomaly": 327.6242,
        "meta_ephemeris_type": 0,
        "meta_classification_type": "U",
        "meta_norad_cat_id": 41469,
        "meta_element_set_no": 999,
        "meta_rev_at_epoch": 3544,
        "meta_bstar": 0,
        "meta_mean_motion_dot": -3.13e-06,
        "meta_mean_motion_ddot": 0,
        "tle_line1": "1 41469U 16027A   25360.47421030 -.00000313  00000+0  00000+0 0  9993",
        "tle_line2": "2 41469   4.7682 101.7470 0002720 326.1355 327.6242  1.00273179 35441"
      },
      "geometry": {
        "type": "Point",
        "coordinates": [
          155.71800515662616,
          3.873939859269484
        ]
      }
    },
    {
      "type": "Feature",
      "properties": {
        "norad_id": 41549,
        "name": "GSAT0211 (GALILEO 14)",
        "group": "gnss",
        "lat": -51.95375968453206,
        "lon": 163.5605364117764,
        "alt_km": 23227.921264157718,
        "timestamp": "2025-12-26T19:22:39.149788+00:00",
        "meta_object_name": "GSAT0211 (GALILEO 14)",
        "meta_object_id": "2016-030A",
        "meta_epoch": "2025-12-25T18:06:09.128448",
        "meta_mean_motion": 1.70473226,
        "meta_eccentricity": 0.00039908,
        "meta_inclination": 55.1481,
        "meta_ra_of_asc_node": 226.465,
        "meta_arg_of_pericenter": 16.0221,
        "meta_mean_anomaly": 344.0794,
        "meta_ephemeris_type": 0,
        "meta_classification_type": "U",
        "meta_norad_cat_id": 41549,
        "meta_element_set_no": 999,
        "meta_rev_at_epoch": 5971,
        "meta_bstar": 0,
        "meta_mean_motion_dot": 7e-07,
        "meta_mean_motion_ddot": 0,
        "tle_line1": "1 41549U 16030A   25359.75427232  .00000070  00000+0  00000+0 0  9994",
        "tle_line2": "2 41549  55.1481 226.4650 0003990  16.0221 344.0794  1.70473226 59712"
      },
      "geometry": {
        "type": "Point",
        "coordinates": [
          163.5605364117764,
          -51.95375968453206
        ]
      }
    },
    {
      "type": "Feature",
      "properties": {
        "norad_id": 41550,
        "name": "GSAT0210 (GALILEO 13)",
        "group": "gnss",
        "lat": 40.02500969581789,
        "lon": 10.641126035939566,
        "alt_km": 23216.59274331534,
        "timestamp": "2025-12-26T19:22:39.149801+00:00",
        "meta_object_name": "GSAT0210 (GALILEO 13)",
        "meta_object_id": "2016-030B",
        "meta_epoch": "2025-12-26T00:16:47.841312",
        "meta_mean_motion": 1.70473562,
        "meta_eccentricity": 5.771e-05,
        "meta_inclination": 55.1475,
        "meta_ra_of_asc_node": 226.456,
        "meta_arg_of_pericenter": 190.7717,
        "meta_mean_anomaly": 169.315,
        "meta_ephemeris_type": 0,
        "meta_classification_type": "U",
        "meta_norad_cat_id": 41550,
        "meta_element_set_no": 999,
        "meta_rev_at_epoch": 5971,
        "meta_bstar": 0,
        "meta_mean_motion_dot": 7e-07,
        "meta_mean_motion_ddot": 0,
        "tle_line1": "1 41550U 16030B   25360.01166483  .00000070  00000+0  00000+0 0  9995",
        "tle_line2": "2 41550  55.1475 226.4560 0000577 190.7717 169.3150  1.70473562 59712"
      },
      "geometry": {
        "type": "Point",
        "coordinates": [
          10.641126035939566,
          40.02500969581789
        ]
      }
    },
    {
      "type": "Feature",
      "properties": {
        "norad_id": 41586,
        "name": "BEIDOU-2 G7 (C03)",
        "group": "gnss",
        "lat": 1.6829322323347629,
        "lon": 136.65549384186886,
        "alt_km": 35778.88061197744,
        "timestamp": "2025-12-26T19:22:39.149813+00:00",
        "meta_object_name": "BEIDOU-2 G7 (C03)",
        "meta_object_id": "2016-037A",
        "meta_epoch": "2025-12-26T15:50:23.467776",
        "meta_mean_motion": 1.00267732,
        "meta_eccentricity": 0.00051628,
        "meta_inclination": 1.7889,
        "meta_ra_of_asc_node": 67.91,
        "meta_arg_of_pericenter": 0.4521,
        "meta_mean_anomaly": 15.0455,
        "meta_ephemeris_type": 0,
        "meta_classification_type": "U",
        "meta_norad_cat_id": 41586,
        "meta_element_set_no": 999,
        "meta_rev_at_epoch": 516,
        "meta_bstar": 0,
        "meta_mean_motion_dot": -3.31e-06,
        "meta_mean_motion_ddot": 0,
        "tle_line1": "1 41586U 16037A   25360.65999384 -.00000331  00000+0  00000+0 0  9996",
        "tle_line2": "2 41586   1.7889  67.9100 0005162   0.4521  15.0455  1.00267732  5168"
      },
      "geometry": {
        "type": "Point",
        "coordinates": [
          136.65549384186886,
          1.6829322323347629
        ]
      }
    }
  ]
}